KUIPER-00061            
1 64521U 25134X   25270.25002315 -.01176473  00000+0 -93440-1 0  9998
2 64521  51.8894 232.2321 0007661  84.0163 114.2711 15.03263780  3995
KUIPER-00062            
1 64522U 25134Y   25270.25002315 -.01767830  00000+0 -16029+0 0  9998
2 64522  51.8901 238.6805 0009651 101.5714 239.0071 14.98520897  5120
KUIPER-00063            
1 64523U 25134Z   25270.12553402 -.00003846  00000+0 -47889-3 0  9994
2 64523  51.9010 241.2496 0005096  59.1218 301.0245 14.79635296 15780
KUIPER-00064            
1 64524U 25134AA  25270.25002315 -.00003145  00000+0 -38983-3 0  9998
2 64524  51.9012 237.8913 0006106 184.1724 219.7587 14.79245998  4858
KUIPER-00065            
1 64525U 25134AB  25270.22439563  .00006562  00000+0  89082-3 0  9995
2 64525  51.8998 243.0436 0012030 100.8579 259.3737 14.79814592 15756
KUIPER-00066            
1 64526U 25134AC  25270.06134588  .00007977  00000+0  39753-3 0  9998
2 64526  51.8895 235.1214 0005262  48.8246 311.3186 15.18407778 15867
KUIPER-00069            
1 64816U 25151A   25270.24893079  .00053253  00000+0  14306-2 0  9990
2 64816  51.8781 295.2808 0005143  99.8368 260.3200 15.37387578 12399
KUIPER-00070            
1 64817U 25151B   25269.34554759  .00005210  00000+0  71405-3 0  9993
2 64817  51.8988 312.2198 0009660  73.4729 286.7294 14.79789807 12085
